FENGYUN 1C DEB          
1 38148U 99025EQV 17343.75609218  .00000949  00000-0  85126-3 0  9992
2 38148  98.9887 168.7528 0182902  63.8860 298.0986 13.79256648466655
